{
  "type": "FeatureCollection",
  "generator": "overpass-turbo",
  "copyright": "The data included in this document is from www.openstreetmap.org. The data is made available under ODbL.",
  "timestamp": "2026-06-02T20:36:59Z",
  "features": [
    {
      "type": "Feature",
      "properties": {
        "@id": "way/50255166",
        "boat": "no",
        "name": "Upper Penitencia Creek",
        "scvwd:FACILITY": "4032",
        "scvwd:ROUTEID": "40320",
        "waterway": "stream"
      },
      "geometry": {
        "type": "LineString",
        "coordinates": [
          [
            -121.8109305,
            37.394785
          ],
          [
            -121.8112869,
            37.3946857
          ],
          [
            -121.8115936,
            37.3945439
          ],
          [
            -121.8117411,
            37.3944856
          ],
          [
            -121.8118303,
            37.3944428
          ],
          [
            -121.8119401,
            37.3943849
          ],
          [
            -121.8123146,
            37.3943114
          ],
          [
            -121.812351,
            37.3943135
          ],
          [
            -121.8126083,
            37.3943156
          ],
          [
            -121.8126486,
            37.3943115
          ],
          [
            -121.8127,
            37.3942946
          ],
          [
            -121.8129472,
            37.3941983
          ],
          [
            -121.8129752,
            37.3941823
          ],
          [
            -121.8130434,
            37.394137
          ],
          [
            -121.8131659,
            37.394024
          ],
          [
            -121.8133425,
            37.3938634
          ],
          [
            -121.8134272,
            37.3937774
          ],
          [
            -121.8135077,
            37.393713
          ],
          [
            -121.8136742,
            37.3936661
          ],
          [
            -121.8139556,
            37.3935955
          ],
          [
            -121.814397,
            37.3934736
          ],
          [
            -121.8145047,
            37.3934298
          ],
          [
            -121.8147252,
            37.3933392
          ],
          [
            -121.8148586,
            37.3932944
          ],
          [
            -121.8151923,
            37.3931551
          ],
          [
            -121.8154453,
            37.3930993
          ],
          [
            -121.8154945,
            37.3930949
          ],
          [
            -121.8158283,
            37.3932096
          ],
          [
            -121.8160721,
            37.3933657
          ],
          [
            -121.8161796,
            37.3934305
          ],
          [
            -121.8162614,
            37.3934987
          ],
          [
            -121.8163338,
            37.3935769
          ],
          [
            -121.8165934,
            37.3937268
          ],
          [
            -121.8169379,
            37.3937222
          ],
          [
            -121.8170227,
            37.3937191
          ],
          [
            -121.8170864,
            37.3937094
          ],
          [
            -121.817238,
            37.3936603
          ],
          [
            -121.8173242,
            37.3936377
          ],
          [
            -121.817673,
            37.3936179
          ],
          [
            -121.8177229,
            37.3936262
          ],
          [
            -121.8178687,
            37.3936613
          ],
          [
            -121.8181093,
            37.3936458
          ],
          [
            -121.8184125,
            37.3936836
          ],
          [
            -121.8187412,
            37.3939518
          ],
          [
            -121.8188462,
            37.3941
          ],
          [
            -121.8190247,
            37.3943471
          ],
          [
            -121.8190885,
            37.3944525
          ],
          [
            -121.8191372,
            37.3945106
          ],
          [
            -121.819325,
            37.3946562
          ],
          [
            -121.8193685,
            37.3946822
          ],
          [
            -121.8194036,
            37.3947006
          ],
          [
            -121.8194428,
            37.3947126
          ],
          [
            -121.8195099,
            37.3947167
          ],
          [
            -121.8196182,
            37.3946652
          ],
          [
            -121.8197988,
            37.3943036
          ],
          [
            -121.8198376,
            37.3942283
          ],
          [
            -121.8198847,
            37.3941561
          ],
          [
            -121.820226,
            37.39408
          ],
          [
            -121.8202396,
            37.3940864
          ],
          [
            -121.8203137,
            37.3941233
          ],
          [
            -121.8204362,
            37.3942325
          ],
          [
            -121.8205795,
            37.394378
          ],
          [
            -121.8207147,
            37.3945149
          ],
          [
            -121.8209372,
            37.3946653
          ],
          [
            -121.8209936,
            37.3947884
          ],
          [
            -121.8210588,
            37.3949264
          ],
          [
            -121.8212152,
            37.3950731
          ],
          [
            -121.8212271,
            37.3950774
          ],
          [
            -121.821809,
            37.3949978
          ],
          [
            -121.8221632,
            37.3949319
          ],
          [
            -121.8223163,
            37.3949302
          ],
          [
            -121.822392,
            37.3949404
          ],
          [
            -121.8224536,
            37.3949544
          ],
          [
            -121.8226432,
            37.3950274
          ],
          [
            -121.8226661,
            37.3950486
          ],
          [
            -121.8227557,
            37.3952294
          ],
          [
            -121.8227684,
            37.3952725
          ],
          [
            -121.8227701,
            37.395279
          ],
          [
            -121.8227933,
            37.3953265
          ],
          [
            -121.822958,
            37.3954806
          ],
          [
            -121.8231044,
            37.3955596
          ],
          [
            -121.8232276,
            37.3956499
          ],
          [
            -121.8233333,
            37.3957239
          ],
          [
            -121.823557,
            37.3958444
          ],
          [
            -121.8235845,
            37.3958529
          ],
          [
            -121.8236485,
            37.3958746
          ],
          [
            -121.8238704,
            37.395961
          ],
          [
            -121.8240153,
            37.3960817
          ],
          [
            -121.8240524,
            37.3961654
          ],
          [
            -121.8240643,
            37.3962481
          ],
          [
            -121.8240406,
            37.3963285
          ]
        ]
      },
      "id": "way/50255166"
    },
    {
      "type": "Feature",
      "properties": {
        "@id": "way/50255168",
        "boat": "no",
        "scvwd:ROUTEID": "490051",
        "waterway": "stream"
      },
      "geometry": {
        "type": "LineString",
        "coordinates": [
          [
            -121.8043356,
            37.407434
          ],
          [
            -121.8046732,
            37.4074188
          ],
          [
            -121.8049844,
            37.4073972
          ],
          [
            -121.8052946,
            37.4073684
          ],
          [
            -121.8056036,
            37.4073325
          ],
          [
            -121.8060566,
            37.4072713
          ],
          [
            -121.806177,
            37.4072463
          ],
          [
            -121.8064092,
            37.4071755
          ],
          [
            -121.8066584,
            37.4070862
          ],
          [
            -121.8069348,
            37.4070554
          ],
          [
            -121.8069835,
            37.4070568
          ],
          [
            -121.8075874,
            37.4071596
          ],
          [
            -121.8078151,
            37.407183
          ],
          [
            -121.8079566,
            37.4071858
          ],
          [
            -121.808073,
            37.4071816
          ],
          [
            -121.8082216,
            37.4071781
          ],
          [
            -121.8083678,
            37.4071674
          ],
          [
            -121.8085015,
            37.4071504
          ],
          [
            -121.8087142,
            37.4071118
          ],
          [
            -121.8089248,
            37.4070662
          ],
          [
            -121.8090859,
            37.4070255
          ],
          [
            -121.8094959,
            37.4069886
          ],
          [
            -121.8095955,
            37.4069674
          ],
          [
            -121.8097341,
            37.4068957
          ],
          [
            -121.8099555,
            37.4066856
          ],
          [
            -121.8100269,
            37.4065936
          ],
          [
            -121.8100676,
            37.4065351
          ],
          [
            -121.8101481,
            37.4064302
          ],
          [
            -121.8102362,
            37.4063293
          ],
          [
            -121.8103358,
            37.4062354
          ],
          [
            -121.8104027,
            37.406161
          ],
          [
            -121.8104752,
            37.4060657
          ],
          [
            -121.8105618,
            37.4059482
          ],
          [
            -121.810582,
            37.405878
          ],
          [
            -121.8106043,
            37.4057691
          ],
          [
            -121.8106978,
            37.4054329
          ],
          [
            -121.8107668,
            37.4052749
          ],
          [
            -121.8108417,
            37.4051296
          ],
          [
            -121.8108784,
            37.4049748
          ],
          [
            -121.8110197,
            37.4047731
          ],
          [
            -121.811042,
            37.4047512
          ],
          [
            -121.8110564,
            37.4047429
          ],
          [
            -121.811493,
            37.404579
          ],
          [
            -121.8115576,
            37.4045468
          ],
          [
            -121.8118345,
            37.4043777
          ],
          [
            -121.812106,
            37.4042206
          ],
          [
            -121.8124027,
            37.404053
          ],
          [
            -121.8129919,
            37.4037481
          ],
          [
            -121.8132795,
            37.4036421
          ],
          [
            -121.8134984,
            37.4035535
          ],
          [
            -121.8137816,
            37.4034336
          ],
          [
            -121.8141389,
            37.4032931
          ],
          [
            -121.814459,
            37.403174
          ],
          [
            -121.8146967,
            37.4030534
          ],
          [
            -121.8148558,
            37.4029641
          ],
          [
            -121.8150933,
            37.4028283
          ],
          [
            -121.8152861,
            37.4027282
          ],
          [
            -121.815491,
            37.4026325
          ],
          [
            -121.8156403,
            37.4025736
          ],
          [
            -121.8160935,
            37.4024874
          ],
          [
            -121.8161171,
            37.4024712
          ],
          [
            -121.8161264,
            37.4024601
          ],
          [
            -121.8162575,
            37.4023278
          ],
          [
            -121.8164188,
            37.4021324
          ],
          [
            -121.8164562,
            37.4020978
          ],
          [
            -121.8166804,
            37.4019633
          ],
          [
            -121.8167577,
            37.4019267
          ],
          [
            -121.8170252,
            37.4018119
          ],
          [
            -121.8173418,
            37.4016393
          ],
          [
            -121.8178903,
            37.401272
          ],
          [
            -121.818701,
            37.4007502
          ],
          [
            -121.8189007,
            37.4006036
          ],
          [
            -121.8191519,
            37.4003462
          ],
          [
            -121.8193489,
            37.4001327
          ],
          [
            -121.8193708,
            37.4001013
          ],
          [
            -121.8193842,
            37.400067
          ],
          [
            -121.819415,
            37.3999213
          ],
          [
            -121.8194011,
            37.3997961
          ],
          [
            -121.819368,
            37.399652
          ],
          [
            -121.8193865,
            37.3996023
          ]
        ]
      },
      "id": "way/50255168"
    },
    {
      "type": "Feature",
      "properties": {
        "@id": "way/50255268",
        "boat": "no",
        "layer": "-1",
        "name": "Miguelita Creek",
        "scvwd:FACILITY": "4029",
        "scvwd:ROUTEID": "40290",
        "tunnel": "yes",
        "waterway": "stream"
      },
      "geometry": {
        "type": "LineString",
        "coordinates": [
          [
            -121.8220271,
            37.381557
          ],
          [
            -121.8225742,
            37.3816145
          ],
          [
            -121.8233778,
            37.3816673
          ],
          [
            -121.8237418,
            37.3816487
          ],
          [
            -121.8263602,
            37.3811353
          ],
          [
            -121.8264554,
            37.3811633
          ],
          [
            -121.8275009,
            37.3827105
          ],
          [
            -121.8275595,
            37.3827274
          ],
          [
            -121.8283864,
            37.3823702
          ],
          [
            -121.8297884,
            37.3817457
          ],
          [
            -121.8306591,
            37.3815882
          ],
          [
            -121.8319416,
            37.3809523
          ],
          [
            -121.8333231,
            37.3802779
          ],
          [
            -121.8330962,
            37.3799902
          ],
          [
            -121.8354435,
            37.3788691
          ],
          [
            -121.8364499,
            37.3783946
          ],
          [
            -121.8376077,
            37.3778435
          ],
          [
            -121.8378021,
            37.3778993
          ],
          [
            -121.8386822,
            37.3774882
          ],
          [
            -121.8393139,
            37.3771293
          ],
          [
            -121.8398157,
            37.3768888
          ],
          [
            -121.8410351,
            37.3760708
          ],
          [
            -121.8425176,
            37.375595
          ],
          [
            -121.8429898,
            37.3753858
          ],
          [
            -121.8431719,
            37.3749957
          ],
          [
            -121.8429802,
            37.3745255
          ],
          [
            -121.8435062,
            37.3740822
          ],
          [
            -121.8442679,
            37.3736034
          ],
          [
            -121.8454667,
            37.37285
          ],
          [
            -121.846773,
            37.3720173
          ],
          [
            -121.8478249,
            37.3713232
          ],
          [
            -121.8491883,
            37.370446
          ],
          [
            -121.8493811,
            37.3702732
          ],
          [
            -121.8496408,
            37.3701016
          ],
          [
            -121.8526704,
            37.3680448
          ],
          [
            -121.8530697,
            37.3678708
          ]
        ]
      },
      "id": "way/50255268"
    },
    {
      "type": "Feature",
      "properties": {
        "@id": "way/50255377",
        "boat": "no",
        "name": "Miguelita Creek",
        "scvwd:FACILITY": "4029",
        "scvwd:ROUTEID": "40290",
        "waterway": "stream"
      },
      "geometry": {
        "type": "LineString",
        "coordinates": [
          [
            -121.8182734,
            37.3844475
          ],
          [
            -121.8184898,
            37.3843558
          ],
          [
            -121.8185567,
            37.3843368
          ],
          [
            -121.8187146,
            37.3843205
          ],
          [
            -121.8188168,
            37.3843085
          ],
          [
            -121.818911,
            37.3842692
          ],
          [
            -121.8189505,
            37.3842407
          ],
          [
            -121.8189834,
            37.3842072
          ],
          [
            -121.8190049,
            37.3841766
          ],
          [
            -121.8190679,
            37.3840862
          ],
          [
            -121.8190876,
            37.3840629
          ],
          [
            -121.8191352,
            37.3840136
          ],
          [
            -121.8193053,
            37.3838299
          ],
          [
            -121.8194681,
            37.383642
          ],
          [
            -121.8198107,
            37.3832071
          ],
          [
            -121.8199091,
            37.3830743
          ],
          [
            -121.8199526,
            37.3829646
          ],
          [
            -121.8199598,
            37.3828496
          ],
          [
            -121.8199496,
            37.3827925
          ],
          [
            -121.8199194,
            37.382724
          ],
          [
            -121.8198864,
            37.3826411
          ],
          [
            -121.8198622,
            37.3825563
          ],
          [
            -121.8198471,
            37.3824701
          ],
          [
            -121.8198409,
            37.3823565
          ],
          [
            -121.8199355,
            37.3821042
          ],
          [
            -121.819964,
            37.3820594
          ],
          [
            -121.8201629,
            37.3819175
          ],
          [
            -121.8202881,
            37.3819069
          ],
          [
            -121.8204398,
            37.3818563
          ],
          [
            -121.8206876,
            37.3817253
          ],
          [
            -121.8209365,
            37.3816107
          ],
          [
            -121.8211252,
            37.3815597
          ],
          [
            -121.8213994,
            37.3814611
          ],
          [
            -121.8215719,
            37.3814604
          ],
          [
            -121.8219633,
            37.3815445
          ],
          [
            -121.8220271,
            37.381557
          ]
        ]
      },
      "id": "way/50255377"
    },
    {
      "type": "Feature",
      "properties": {
        "@id": "way/50255378",
        "boat": "no",
        "name": "Miguelita Creek",
        "scvwd:FACILITY": "4029",
        "scvwd:ROUTEID": "40290",
        "waterway": "stream"
      },
      "geometry": {
        "type": "LineString",
        "coordinates": [
          [
            -121.8180184,
            37.3845409
          ],
          [
            -121.8181097,
            37.3845059
          ]
        ]
      },
      "id": "way/50255378"
    },
    {
      "type": "Feature",
      "properties": {
        "@id": "way/50255379",
        "boat": "no",
        "layer": "-1",
        "name": "Miguelita Creek",
        "scvwd:FACILITY": "4029",
        "scvwd:ROUTEID": "40290",
        "tunnel": "yes",
        "waterway": "stream"
      },
      "geometry": {
        "type": "LineString",
        "coordinates": [
          [
            -121.8181097,
            37.3845059
          ],
          [
            -121.8182734,
            37.3844475
          ]
        ]
      },
      "id": "way/50255379"
    },
    {
      "type": "Feature",
      "properties": {
        "@id": "way/50255381",
        "boat": "no",
        "name": "Miguelita Creek",
        "scvwd:FACILITY": "4029",
        "scvwd:ROUTEID": "40290",
        "waterway": "stream"
      },
      "geometry": {
        "type": "LineString",
        "coordinates": [
          [
            -121.8176545,
            37.3846612
          ],
          [
            -121.8176725,
            37.3846528
          ]
        ]
      },
      "id": "way/50255381"
    },
    {
      "type": "Feature",
      "properties": {
        "@id": "way/50255382",
        "boat": "no",
        "layer": "-1",
        "name": "Miguelita Creek",
        "scvwd:FACILITY": "4029",
        "scvwd:ROUTEID": "40290",
        "tunnel": "yes",
        "waterway": "stream"
      },
      "geometry": {
        "type": "LineString",
        "coordinates": [
          [
            -121.8179962,
            37.3845497
          ],
          [
            -121.8180184,
            37.3845409
          ]
        ]
      },
      "id": "way/50255382"
    },
    {
      "type": "Feature",
      "properties": {
        "@id": "way/50255383",
        "boat": "no",
        "name": "Miguelita Creek",
        "scvwd:FACILITY": "4029",
        "scvwd:ROUTEID": "40290",
        "waterway": "stream"
      },
      "geometry": {
        "type": "LineString",
        "coordinates": [
          [
            -121.8176725,
            37.3846528
          ],
          [
            -121.8179962,
            37.3845497
          ]
        ]
      },
      "id": "way/50255383"
    },
    {
      "type": "Feature",
      "properties": {
        "@id": "way/50255385",
        "boat": "no",
        "name": "Upper Penitencia Creek",
        "scvwd:FACILITY": "4032",
        "scvwd:ROUTEID": "40320",
        "waterway": "stream"
      },
      "geometry": {
        "type": "LineString",
        "coordinates": [
          [
            -121.8239983,
            37.3964191
          ],
          [
            -121.8239293,
            37.3966599
          ],
          [
            -121.8239436,
            37.3966969
          ],
          [
            -121.8239665,
            37.396731
          ],
          [
            -121.823997,
            37.3967611
          ],
          [
            -121.8240341,
            37.3967861
          ],
          [
            -121.8240765,
            37.3968049
          ],
          [
            -121.8240931,
            37.3968102
          ],
          [
            -121.8242668,
            37.3968755
          ],
          [
            -121.8244474,
            37.3969715
          ],
          [
            -121.8245354,
            37.3970444
          ],
          [
            -121.8246132,
            37.3970971
          ],
          [
            -121.8246966,
            37.397144
          ],
          [
            -121.8248053,
            37.3971978
          ],
          [
            -121.8248763,
            37.3972267
          ],
          [
            -121.8249511,
            37.3972489
          ],
          [
            -121.8250285,
            37.3972642
          ],
          [
            -121.8250908,
            37.3972713
          ],
          [
            -121.8251462,
            37.3972836
          ],
          [
            -121.8252225,
            37.3972939
          ],
          [
            -121.8252997,
            37.3972968
          ],
          [
            -121.8253769,
            37.3972922
          ],
          [
            -121.8254507,
            37.3972806
          ],
          [
            -121.8257396,
            37.3971883
          ],
          [
            -121.8258167,
            37.3971673
          ],
          [
            -121.825901,
            37.3971398
          ],
          [
            -121.8259814,
            37.3971058
          ],
          [
            -121.8260571,
            37.3970655
          ],
          [
            -121.8262994,
            37.3968512
          ],
          [
            -121.8263328,
            37.3967978
          ],
          [
            -121.8264001,
            37.3965065
          ],
          [
            -121.8263822,
            37.3963704
          ],
          [
            -121.8263542,
            37.3961998
          ],
          [
            -121.8263239,
            37.3959926
          ],
          [
            -121.8263033,
            37.3958798
          ],
          [
            -121.8261087,
            37.3956812
          ],
          [
            -121.8260619,
            37.3956399
          ],
          [
            -121.8259644,
            37.3954845
          ],
          [
            -121.8259764,
            37.3953747
          ],
          [
            -121.8260284,
            37.3953133
          ],
          [
            -121.8260649,
            37.3952901
          ],
          [
            -121.8261065,
            37.3952732
          ],
          [
            -121.8261516,
            37.3952634
          ],
          [
            -121.8267107,
            37.3952066
          ],
          [
            -121.8268904,
            37.3951919
          ],
          [
            -121.8271053,
            37.3951968
          ],
          [
            -121.8275297,
            37.3952509
          ],
          [
            -121.8276511,
            37.3952595
          ],
          [
            -121.8277518,
            37.3952768
          ],
          [
            -121.827955,
            37.3952878
          ],
          [
            -121.8281202,
            37.3952895
          ],
          [
            -121.828466,
            37.3952527
          ],
          [
            -121.8285844,
            37.395226
          ],
          [
            -121.8286876,
            37.3951963
          ],
          [
            -121.8287305,
            37.3951761
          ],
          [
            -121.8289926,
            37.3949391
          ],
          [
            -121.8290279,
            37.394916
          ],
          [
            -121.8291081,
            37.3948567
          ],
          [
            -121.8291818,
            37.3947922
          ],
          [
            -121.8292485,
            37.3947231
          ],
          [
            -121.8292789,
            37.3946872
          ],
          [
            -121.8293524,
            37.3946046
          ],
          [
            -121.8293864,
            37.3945499
          ],
          [
            -121.829412,
            37.3944923
          ],
          [
            -121.829429,
            37.3944326
          ],
          [
            -121.8296634,
            37.3942377
          ],
          [
            -121.8298455,
            37.3940799
          ],
          [
            -121.8299837,
            37.3939715
          ],
          [
            -121.8302167,
            37.3938771
          ],
          [
            -121.8303844,
            37.3938294
          ],
          [
            -121.830441,
            37.3938238
          ],
          [
            -121.8305734,
            37.393811
          ],
          [
            -121.8307648,
            37.3937856
          ],
          [
            -121.830901,
            37.3937959
          ],
          [
            -121.8310326,
            37.3938094
          ],
          [
            -121.8311326,
            37.393828
          ],
          [
            -121.8312484,
            37.3938648
          ],
          [
            -121.8313664,
            37.3939023
          ],
          [
            -121.8314874,
            37.3939329
          ],
          [
            -121.8316507,
            37.3939626
          ],
          [
            -121.8319354,
            37.3939766
          ],
          [
            -121.8323092,
            37.3938166
          ],
          [
            -121.8324883,
            37.3937299
          ],
          [
            -121.8326626,
            37.3936371
          ],
          [
            -121.8328487,
            37.3935243
          ],
          [
            -121.8329862,
            37.3934267
          ],
          [
            -121.8330067,
            37.3934008
          ]
        ]
      },
      "id": "way/50255385"
    },
    {
      "type": "Feature",
      "properties": {
        "@id": "way/50255392",
        "boat": "no",
        "layer": "-1",
        "name": "Upper Penitencia Creek",
        "scvwd:FACILITY": "4032",
        "scvwd:ROUTEID": "40320",
        "tunnel": "yes",
        "waterway": "stream"
      },
      "geometry": {
        "type": "LineString",
        "coordinates": [
          [
            -121.8240406,
            37.3963285
          ],
          [
            -121.8239983,
            37.3964191
          ]
        ]
      },
      "id": "way/50255392"
    },
    {
      "type": "Feature",
      "properties": {
        "@id": "way/50255494",
        "boat": "no",
        "name": "Sierra Creek",
        "scvwd:FACILITY": "4037",
        "scvwd:ROUTEID": "40370",
        "waterway": "stream"
      },
      "geometry": {
        "type": "LineString",
        "coordinates": [
          [
            -121.8203584,
            37.4113046
          ],
          [
            -121.8205565,
            37.4110674
          ],
          [
            -121.8206598,
            37.4109645
          ],
          [
            -121.82077,
            37.4108662
          ],
          [
            -121.8208868,
            37.410773
          ],
          [
            -121.8209621,
            37.410721
          ],
          [
            -121.8210786,
            37.4106474
          ],
          [
            -121.8212985,
            37.4104797
          ],
          [
            -121.8215014,
            37.4103574
          ],
          [
            -121.8217079,
            37.4102498
          ],
          [
            -121.8218346,
            37.4102184
          ],
          [
            -121.8219973,
            37.4101635
          ],
          [
            -121.8223036,
            37.4099913
          ],
          [
            -121.8223922,
            37.4099492
          ],
          [
            -121.8224254,
            37.409944
          ],
          [
            -121.8226982,
            37.4098047
          ],
          [
            -121.8227385,
            37.409791
          ],
          [
            -121.8227759,
            37.4097652
          ],
          [
            -121.8227898,
            37.4097489
          ],
          [
            -121.8229111,
            37.409666
          ],
          [
            -121.822995,
            37.4096336
          ],
          [
            -121.8230484,
            37.4096189
          ],
          [
            -121.8232993,
            37.4096368
          ],
          [
            -121.8235406,
            37.4096622
          ],
          [
            -121.8235991,
            37.4096545
          ],
          [
            -121.8238278,
            37.4096199
          ],
          [
            -121.8239837,
            37.4096006
          ],
          [
            -121.8240617,
            37.4095748
          ],
          [
            -121.8243303,
            37.4093896
          ],
          [
            -121.8244281,
            37.4093028
          ],
          [
            -121.8248547,
            37.4089579
          ],
          [
            -121.8251832,
            37.4087099
          ],
          [
            -121.8252577,
            37.4086651
          ],
          [
            -121.8256278,
            37.4084362
          ],
          [
            -121.8258453,
            37.4083128
          ],
          [
            -121.826032,
            37.4082325
          ],
          [
            -121.8263225,
            37.4081387
          ],
          [
            -121.8265653,
            37.4080709
          ],
          [
            -121.8266597,
            37.408036
          ],
          [
            -121.8267498,
            37.4079946
          ],
          [
            -121.826835,
            37.4079469
          ],
          [
            -121.8269291,
            37.4078947
          ],
          [
            -121.827155,
            37.407842
          ],
          [
            -121.8273237,
            37.4077731
          ],
          [
            -121.8274726,
            37.4076797
          ],
          [
            -121.8275379,
            37.4076248
          ],
          [
            -121.82769,
            37.4074337
          ],
          [
            -121.8277478,
            37.4072989
          ],
          [
            -121.827658,
            37.4069408
          ],
          [
            -121.827482,
            37.4066422
          ],
          [
            -121.8272495,
            37.4065442
          ],
          [
            -121.8271999,
            37.406515
          ],
          [
            -121.8272039,
            37.4064952
          ],
          [
            -121.8272171,
            37.4064844
          ],
          [
            -121.8273012,
            37.4064431
          ],
          [
            -121.8276553,
            37.4063504
          ],
          [
            -121.8277407,
            37.4063399
          ],
          [
            -121.8278143,
            37.4063161
          ],
          [
            -121.8278415,
            37.4062896
          ],
          [
            -121.8278738,
            37.4062536
          ],
          [
            -121.8279055,
            37.4062464
          ],
          [
            -121.8281816,
            37.4064494
          ],
          [
            -121.8282747,
            37.4065596
          ],
          [
            -121.828368,
            37.4066502
          ],
          [
            -121.8284526,
            37.4066987
          ],
          [
            -121.8285435,
            37.406749
          ],
          [
            -121.8286125,
            37.4067808
          ],
          [
            -121.828659,
            37.4067931
          ],
          [
            -121.8287075,
            37.4067981
          ],
          [
            -121.8289983,
            37.4067811
          ],
          [
            -121.8291255,
            37.4067661
          ],
          [
            -121.8293199,
            37.4067676
          ],
          [
            -121.8295791,
            37.4067899
          ],
          [
            -121.829605,
            37.406786
          ],
          [
            -121.8296528,
            37.4067401
          ],
          [
            -121.8299286,
            37.4066552
          ],
          [
            -121.8300579,
            37.4065907
          ],
          [
            -121.8301481,
            37.4065267
          ],
          [
            -121.8302689,
            37.4064496
          ],
          [
            -121.8303951,
            37.4063783
          ],
          [
            -121.8306884,
            37.4062435
          ],
          [
            -121.8307825,
            37.4062095
          ],
          [
            -121.8309828,
            37.4060786
          ],
          [
            -121.8312721,
            37.4059321
          ],
          [
            -121.831377,
            37.405895
          ],
          [
            -121.8314852,
            37.4058648
          ],
          [
            -121.8315962,
            37.4058416
          ],
          [
            -121.8317066,
            37.4058149
          ],
          [
            -121.8317563,
            37.4057823
          ],
          [
            -121.8318767,
            37.405715
          ],
          [
            -121.8319789,
            37.4056995
          ],
          [
            -121.832031,
            37.4057025
          ],
          [
            -121.8323824,
            37.4056931
          ],
          [
            -121.8325865,
            37.405647
          ],
          [
            -121.8326601,
            37.4056226
          ],
          [
            -121.8330371,
            37.4055537
          ],
          [
            -121.833339,
            37.40552
          ],
          [
            -121.8334714,
            37.4055149
          ],
          [
            -121.8337159,
            37.4055053
          ],
          [
            -121.8337967,
            37.4054811
          ],
          [
            -121.8339291,
            37.4053126
          ],
          [
            -121.833945,
            37.4053026
          ],
          [
            -121.8339572,
            37.4052979
          ],
          [
            -121.8339704,
            37.4052949
          ],
          [
            -121.834247,
            37.4053438
          ],
          [
            -121.8342804,
            37.4053415
          ],
          [
            -121.8345449,
            37.4051258
          ],
          [
            -121.8345541,
            37.405104
          ],
          [
            -121.8346174,
            37.4050328
          ],
          [
            -121.8346525,
            37.4050176
          ],
          [
            -121.8347042,
            37.4049907
          ],
          [
            -121.8347562,
            37.4049319
          ],
          [
            -121.8347723,
            37.4048433
          ],
          [
            -121.8348047,
            37.4047719
          ],
          [
            -121.8348453,
            37.4047596
          ],
          [
            -121.8349592,
            37.4047531
          ],
          [
            -121.835041,
            37.4047216
          ],
          [
            -121.8351306,
            37.4046157
          ],
          [
            -121.8353434,
            37.4046524
          ],
          [
            -121.8355277,
            37.4046604
          ],
          [
            -121.8356051,
            37.4046577
          ],
          [
            -121.8357414,
            37.404642
          ],
          [
            -121.836066,
            37.40455
          ],
          [
            -121.8360992,
            37.4045351
          ],
          [
            -121.8361431,
            37.4045098
          ],
          [
            -121.8361717,
            37.4044874
          ]
        ]
      },
      "id": "way/50255494"
    },
    {
      "type": "Feature",
      "properties": {
        "@id": "way/50256359",
        "boat": "no",
        "name": "Upper Penitencia Creek",
        "scvwd:FACILITY": "4032",
        "scvwd:ROUTEID": "40320",
        "waterway": "stream"
      },
      "geometry": {
        "type": "LineString",
        "coordinates": [
          [
            -121.7777673,
            37.4058238
          ],
          [
            -121.7781066,
            37.4057558
          ],
          [
            -121.7783091,
            37.4057497
          ],
          [
            -121.7786086,
            37.4057279
          ],
          [
            -121.7786959,
            37.4057169
          ],
          [
            -121.7789388,
            37.4056238
          ],
          [
            -121.7789625,
            37.4056063
          ],
          [
            -121.7790093,
            37.405561
          ],
          [
            -121.7791864,
            37.4053607
          ],
          [
            -121.7792615,
            37.4052575
          ],
          [
            -121.7793731,
            37.4050811
          ],
          [
            -121.7795743,
            37.4049552
          ],
          [
            -121.7800028,
            37.404899
          ],
          [
            -121.7801201,
            37.4048896
          ],
          [
            -121.7801856,
            37.4048742
          ],
          [
            -121.780246,
            37.4048525
          ],
          [
            -121.7803052,
            37.4048249
          ],
          [
            -121.7803659,
            37.4047904
          ],
          [
            -121.7806663,
            37.4044583
          ],
          [
            -121.7807169,
            37.4043732
          ],
          [
            -121.7807702,
            37.4043365
          ],
          [
            -121.780802,
            37.4043242
          ],
          [
            -121.780836,
            37.4043166
          ],
          [
            -121.7808711,
            37.4043137
          ],
          [
            -121.7809064,
            37.4043158
          ],
          [
            -121.7809728,
            37.4043343
          ],
          [
            -121.780997,
            37.4043469
          ],
          [
            -121.7812004,
            37.4044869
          ],
          [
            -121.7814434,
            37.4045359
          ],
          [
            -121.7815575,
            37.4045347
          ],
          [
            -121.7817152,
            37.4045206
          ],
          [
            -121.7820251,
            37.4044346
          ],
          [
            -121.7820446,
            37.4044241
          ],
          [
            -121.7820787,
            37.4044051
          ],
          [
            -121.7823218,
            37.4042501
          ],
          [
            -121.7824065,
            37.4041865
          ],
          [
            -121.7824384,
            37.4041622
          ],
          [
            -121.7827927,
            37.4039505
          ],
          [
            -121.783002,
            37.4038412
          ],
          [
            -121.7832517,
            37.4037361
          ],
          [
            -121.7834936,
            37.403662
          ],
          [
            -121.7835291,
            37.4036559
          ],
          [
            -121.7837227,
            37.4036233
          ],
          [
            -121.7838432,
            37.4036129
          ],
          [
            -121.7840299,
            37.4036079
          ],
          [
            -121.7842055,
            37.4036078
          ],
          [
            -121.7843809,
            37.403615
          ],
          [
            -121.7846074,
            37.4036207
          ],
          [
            -121.7847402,
            37.4036301
          ],
          [
            -121.7848718,
            37.4036467
          ],
          [
            -121.7849961,
            37.4036693
          ],
          [
            -121.7852869,
            37.4037262
          ],
          [
            -121.7855125,
            37.4037863
          ],
          [
            -121.7855653,
            37.4037894
          ],
          [
            -121.7856087,
            37.4037864
          ],
          [
            -121.785723,
            37.4037933
          ],
          [
            -121.7859277,
            37.403893
          ],
          [
            -121.7859896,
            37.4039355
          ],
          [
            -121.786285,
            37.4040991
          ],
          [
            -121.7865088,
            37.404182
          ],
          [
            -121.7867973,
            37.4043004
          ],
          [
            -121.7869442,
            37.4044556
          ],
          [
            -121.7872376,
            37.4046652
          ],
          [
            -121.7873603,
            37.4046828
          ],
          [
            -121.7874567,
            37.4046817
          ],
          [
            -121.7878044,
            37.4046028
          ],
          [
            -121.7878768,
            37.4045841
          ],
          [
            -121.7879765,
            37.4045642
          ],
          [
            -121.788347,
            37.404593
          ],
          [
            -121.7883904,
            37.4046065
          ],
          [
            -121.7884483,
            37.4046254
          ],
          [
            -121.7885508,
            37.4046822
          ],
          [
            -121.788663,
            37.4047922
          ],
          [
            -121.7888337,
            37.405233
          ],
          [
            -121.7889171,
            37.4053405
          ],
          [
            -121.7893009,
            37.4052964
          ],
          [
            -121.7893911,
            37.4051855
          ],
          [
            -121.7894691,
            37.4051117
          ],
          [
            -121.7896173,
            37.4050265
          ],
          [
            -121.7896965,
            37.4050123
          ],
          [
            -121.7897562,
            37.4050079
          ],
          [
            -121.7898322,
            37.4050084
          ],
          [
            -121.7898737,
            37.4050168
          ],
          [
            -121.789896,
            37.4050313
          ],
          [
            -121.7900919,
            37.4052154
          ],
          [
            -121.7901891,
            37.4052936
          ],
          [
            -121.7902083,
            37.4053103
          ],
          [
            -121.7902453,
            37.4053339
          ],
          [
            -121.7903642,
            37.4053646
          ],
          [
            -121.7906494,
            37.4052882
          ],
          [
            -121.7907957,
            37.4051648
          ],
          [
            -121.7908666,
            37.4050153
          ],
          [
            -121.7909055,
            37.40497
          ],
          [
            -121.7909571,
            37.4049501
          ],
          [
            -121.7909885,
            37.4049489
          ],
          [
            -121.7910436,
            37.4049339
          ],
          [
            -121.7910909,
            37.4049296
          ],
          [
            -121.7911384,
            37.4049328
          ],
          [
            -121.791269,
            37.4049411
          ],
          [
            -121.7913651,
            37.4049201
          ],
          [
            -121.7914088,
            37.4048801
          ],
          [
            -121.7914802,
            37.4048058
          ],
          [
            -121.7915441,
            37.4047272
          ],
          [
            -121.7915727,
            37.404687
          ],
          [
            -121.7916447,
            37.4045942
          ],
          [
            -121.7917832,
            37.4043288
          ],
          [
            -121.7918095,
            37.4042525
          ],
          [
            -121.7918266,
            37.4041746
          ],
          [
            -121.7918391,
            37.4041074
          ],
          [
            -121.7919074,
            37.4038749
          ],
          [
            -121.792033,
            37.4036112
          ],
          [
            -121.7922874,
            37.4035593
          ],
          [
            -121.7924575,
            37.4036107
          ],
          [
            -121.7925596,
            37.4036628
          ],
          [
            -121.7926167,
            37.4037097
          ],
          [
            -121.7927024,
            37.4037737
          ],
          [
            -121.7928774,
            37.403958
          ],
          [
            -121.792912,
            37.4039884
          ],
          [
            -121.7929331,
            37.4040218
          ],
          [
            -121.7931095,
            37.4041225
          ],
          [
            -121.7934695,
            37.4041107
          ],
          [
            -121.7936744,
            37.4039589
          ],
          [
            -121.7938756,
            37.4037978
          ],
          [
            -121.7941107,
            37.4035662
          ],
          [
            -121.7941635,
            37.4035074
          ],
          [
            -121.7943061,
            37.4032892
          ],
          [
            -121.7943414,
            37.4032142
          ],
          [
            -121.7943545,
            37.4031602
          ],
          [
            -121.7943583,
            37.4031053
          ],
          [
            -121.7943582,
            37.4030521
          ],
          [
            -121.7943525,
            37.4029832
          ],
          [
            -121.7943427,
            37.4029336
          ],
          [
            -121.7943253,
            37.4028856
          ],
          [
            -121.7943199,
            37.4028425
          ],
          [
            -121.7944558,
            37.4025925
          ],
          [
            -121.7944768,
            37.4025792
          ],
          [
            -121.7945748,
            37.4024954
          ],
          [
            -121.7947526,
            37.4023894
          ],
          [
            -121.7950273,
            37.4022009
          ],
          [
            -121.7951204,
            37.4021245
          ],
          [
            -121.7952068,
            37.4020432
          ],
          [
            -121.7952537,
            37.4019939
          ],
          [
            -121.7952949,
            37.401937
          ],
          [
            -121.7954011,
            37.4017017
          ],
          [
            -121.7953559,
            37.4014928
          ],
          [
            -121.7953424,
            37.4014794
          ],
          [
            -121.7953047,
            37.4014479
          ],
          [
            -121.7952058,
            37.4013724
          ],
          [
            -121.7951757,
            37.401349
          ],
          [
            -121.795092,
            37.4012603
          ],
          [
            -121.7950796,
            37.4012251
          ],
          [
            -121.7950845,
            37.4012009
          ],
          [
            -121.7950995,
            37.4011795
          ],
          [
            -121.7952595,
            37.4010877
          ],
          [
            -121.7953186,
            37.4010209
          ],
          [
            -121.7953331,
            37.4009946
          ],
          [
            -121.7953593,
            37.4009433
          ],
          [
            -121.7953767,
            37.4008898
          ],
          [
            -121.7954038,
            37.4007428
          ],
          [
            -121.795434,
            37.4006602
          ],
          [
            -121.7954728,
            37.4005799
          ],
          [
            -121.7955201,
            37.4005025
          ],
          [
            -121.7955548,
            37.4004589
          ],
          [
            -121.7956087,
            37.400403
          ],
          [
            -121.7956695,
            37.4003518
          ],
          [
            -121.7957366,
            37.4003059
          ],
          [
            -121.7958092,
            37.4002657
          ],
          [
            -121.7961302,
            37.4001554
          ],
          [
            -121.7966753,
            37.4000679
          ],
          [
            -121.7967738,
            37.4000481
          ],
          [
            -121.7969834,
            37.3998917
          ],
          [
            -121.7970318,
            37.399842
          ],
          [
            -121.7971673,
            37.3995952
          ],
          [
            -121.7972163,
            37.3994043
          ],
          [
            -121.7973353,
            37.3991224
          ],
          [
            -121.7973476,
            37.3990881
          ],
          [
            -121.7973791,
            37.3988536
          ],
          [
            -121.7973581,
            37.3986888
          ],
          [
            -121.7973448,
            37.3986346
          ],
          [
            -121.7973231,
            37.398452
          ],
          [
            -121.7973384,
            37.3982691
          ],
          [
            -121.7973599,
            37.3981789
          ],
          [
            -121.7973813,
            37.3981512
          ],
          [
            -121.7974196,
            37.3981041
          ],
          [
            -121.7974812,
            37.3979061
          ],
          [
            -121.7974519,
            37.3977784
          ],
          [
            -121.7974075,
            37.3976339
          ],
          [
            -121.7973593,
            37.39755
          ],
          [
            -121.7973527,
            37.3975309
          ],
          [
            -121.7973771,
            37.3972769
          ],
          [
            -121.7974454,
            37.3971794
          ],
          [
            -121.7974705,
            37.3971545
          ],
          [
            -121.7974785,
            37.3971475
          ],
          [
            -121.7975394,
            37.3971002
          ],
          [
            -121.7976065,
            37.3970583
          ],
          [
            -121.7977555,
            37.3969932
          ],
          [
            -121.7979252,
            37.3969542
          ],
          [
            -121.7980547,
            37.3969427
          ]
        ]
      },
      "id": "way/50256359"
    },
    {
      "type": "Feature",
      "properties": {
        "@id": "way/50256424",
        "boat": "no",
        "scvwd:ROUTEID": "490101",
        "waterway": "stream"
      },
      "geometry": {
        "type": "LineString",
        "coordinates": [
          [
            -121.8019157,
            37.3866074
          ],
          [
            -121.802123,
            37.386447
          ],
          [
            -121.8022683,
            37.3863472
          ],
          [
            -121.8024193,
            37.386253
          ],
          [
            -121.8025757,
            37.3861646
          ],
          [
            -121.8027372,
            37.3860822
          ],
          [
            -121.8029642,
            37.3859787
          ],
          [
            -121.8031047,
            37.3859315
          ],
          [
            -121.8031792,
            37.3859181
          ],
          [
            -121.8032551,
            37.3859118
          ],
          [
            -121.803353,
            37.3859144
          ]
        ]
      },
      "id": "way/50256424"
    },
    {
      "type": "Feature",
      "properties": {
        "@id": "way/50256425",
        "boat": "no",
        "name": "Miguelita Creek",
        "scvwd:FACILITY": "4029",
        "scvwd:ROUTEID": "40290",
        "waterway": "stream"
      },
      "geometry": {
        "type": "LineString",
        "coordinates": [
          [
            -121.7940361,
            37.3844078
          ],
          [
            -121.7938566,
            37.3840218
          ],
          [
            -121.7938364,
            37.3839518
          ],
          [
            -121.7938307,
            37.3838946
          ],
          [
            -121.7938344,
            37.3838373
          ],
          [
            -121.7938423,
            37.3837944
          ],
          [
            -121.7938502,
            37.3837212
          ],
          [
            -121.7938411,
            37.3835881
          ],
          [
            -121.7938358,
            37.3834201
          ],
          [
            -121.7938034,
            37.3833687
          ],
          [
            -121.793644,
            37.3830281
          ],
          [
            -121.7935618,
            37.3826757
          ],
          [
            -121.793534,
            37.3825705
          ],
          [
            -121.7935159,
            37.3822756
          ],
          [
            -121.7935556,
            37.38201
          ],
          [
            -121.7935685,
            37.3818278
          ],
          [
            -121.7935834,
            37.3817327
          ],
          [
            -121.7936636,
            37.3816284
          ],
          [
            -121.7937685,
            37.3814959
          ],
          [
            -121.7938657,
            37.3813597
          ],
          [
            -121.7939749,
            37.3811714
          ],
          [
            -121.7940907,
            37.3808864
          ],
          [
            -121.7941034,
            37.3808268
          ],
          [
            -121.7941069,
            37.3807664
          ],
          [
            -121.7941047,
            37.3807312
          ],
          [
            -121.7941014,
            37.3806913
          ],
          [
            -121.7941051,
            37.3806386
          ],
          [
            -121.7941652,
            37.3804138
          ],
          [
            -121.794187,
            37.3803551
          ],
          [
            -121.7942175,
            37.380299
          ],
          [
            -121.7943562,
            37.3801536
          ],
          [
            -121.7943842,
            37.3801344
          ],
          [
            -121.7945539,
            37.380018
          ],
          [
            -121.7946828,
            37.3799476
          ],
          [
            -121.7948714,
            37.3798024
          ],
          [
            -121.7950286,
            37.3797239
          ],
          [
            -121.7952496,
            37.3795934
          ],
          [
            -121.7954547,
            37.3794511
          ],
          [
            -121.795652,
            37.3793534
          ],
          [
            -121.7958378,
            37.3793476
          ],
          [
            -121.7961283,
            37.3792073
          ]
        ]
      },
      "id": "way/50256425"
    },
    {
      "type": "Feature",
      "properties": {
        "@id": "way/50256426",
        "boat": "no",
        "scvwd:ROUTEID": "490100",
        "waterway": "stream"
      },
      "geometry": {
        "type": "LineString",
        "coordinates": [
          [
            -121.8024955,
            37.3855866
          ],
          [
            -121.8027718,
            37.3857404
          ],
          [
            -121.8028891,
            37.3857899
          ],
          [
            -121.8030103,
            37.3858328
          ],
          [
            -121.803135,
            37.3858689
          ],
          [
            -121.8032625,
            37.3858981
          ],
          [
            -121.803353,
            37.3859144
          ],
          [
            -121.803855,
            37.3860519
          ],
          [
            -121.8039184,
            37.3861103
          ],
          [
            -121.8041505,
            37.3862954
          ],
          [
            -121.8044067,
            37.3864591
          ],
          [
            -121.8045429,
            37.3865322
          ],
          [
            -121.8047703,
            37.3866472
          ],
          [
            -121.8048854,
            37.3867457
          ],
          [
            -121.8051475,
            37.3869691
          ],
          [
            -121.8054667,
            37.3872533
          ],
          [
            -121.8055294,
            37.3872968
          ],
          [
            -121.8055978,
            37.3873344
          ],
          [
            -121.8058284,
            37.3874076
          ],
          [
            -121.8062375,
            37.3873847
          ],
          [
            -121.8063758,
            37.3873468
          ],
          [
            -121.806532,
            37.3873144
          ],
          [
            -121.8066902,
            37.3872891
          ],
          [
            -121.8068499,
            37.387271
          ],
          [
            -121.8070656,
            37.387258
          ],
          [
            -121.8071354,
            37.3872621
          ],
          [
            -121.8074096,
            37.3872656
          ],
          [
            -121.8075348,
            37.3872789
          ],
          [
            -121.8076585,
            37.3872995
          ],
          [
            -121.8077526,
            37.3873202
          ],
          [
            -121.8078974,
            37.3873504
          ],
          [
            -121.8080392,
            37.3873488
          ],
          [
            -121.8081027,
            37.3873383
          ],
          [
            -121.8082041,
            37.3873256
          ],
          [
            -121.8082935,
            37.3873067
          ],
          [
            -121.8083801,
            37.3872808
          ],
          [
            -121.8085348,
            37.3872555
          ],
          [
            -121.8088952,
            37.3872732
          ],
          [
            -121.8092275,
            37.3870507
          ],
          [
            -121.8093008,
            37.3869912
          ],
          [
            -121.8094554,
            37.3869155
          ],
          [
            -121.8096985,
            37.3868146
          ],
          [
            -121.8098475,
            37.3867423
          ],
          [
            -121.8100542,
            37.3866291
          ],
          [
            -121.8101681,
            37.3865405
          ],
          [
            -121.8102975,
            37.3864268
          ],
          [
            -121.8104329,
            37.3862976
          ],
          [
            -121.8105611,
            37.3861638
          ],
          [
            -121.810682,
            37.3860258
          ],
          [
            -121.8107687,
            37.3859057
          ],
          [
            -121.8108207,
            37.3857766
          ],
          [
            -121.8108519,
            37.3855006
          ],
          [
            -121.810873,
            37.3854228
          ],
          [
            -121.8109415,
            37.3852733
          ],
          [
            -121.8111712,
            37.3850176
          ],
          [
            -121.811217,
            37.3849904
          ],
          [
            -121.811511,
            37.3848212
          ],
          [
            -121.8118016,
            37.3846624
          ]
        ]
      },
      "id": "way/50256426"
    },
    {
      "type": "Feature",
      "properties": {
        "@id": "way/50256430",
        "boat": "no",
        "scvwd:ROUTEID": "490098",
        "waterway": "stream"
      },
      "geometry": {
        "type": "LineString",
        "coordinates": [
          [
            -121.801447,
            37.3815864
          ],
          [
            -121.8016207,
            37.3812794
          ],
          [
            -121.8016432,
            37.3810355
          ],
          [
            -121.8015352,
            37.3808498
          ],
          [
            -121.801468,
            37.3807598
          ],
          [
            -121.8013498,
            37.3805907
          ],
          [
            -121.8011816,
            37.3802986
          ],
          [
            -121.8011005,
            37.3801532
          ],
          [
            -121.8009899,
            37.3799252
          ],
          [
            -121.8009474,
            37.3798077
          ],
          [
            -121.8009245,
            37.3797355
          ],
          [
            -121.8008304,
            37.3795194
          ],
          [
            -121.8007706,
            37.3794154
          ],
          [
            -121.8006483,
            37.3792442
          ],
          [
            -121.8005109,
            37.3790886
          ],
          [
            -121.8004434,
            37.3789947
          ],
          [
            -121.8003841,
            37.3788973
          ],
          [
            -121.8003907,
            37.3787755
          ],
          [
            -121.800572,
            37.3786098
          ],
          [
            -121.8006127,
            37.3785862
          ],
          [
            -121.8006383,
            37.378556
          ],
          [
            -121.8006558,
            37.3785223
          ],
          [
            -121.8007525,
            37.378364
          ],
          [
            -121.8008034,
            37.3783355
          ],
          [
            -121.8009168,
            37.3782187
          ],
          [
            -121.8010086,
            37.3779584
          ],
          [
            -121.8011966,
            37.3778521
          ],
          [
            -121.8013938,
            37.3777549
          ]
        ]
      },
      "id": "way/50256430"
    },
    {
      "type": "Feature",
      "properties": {
        "@id": "way/50256433",
        "boat": "no",
        "layer": "-1",
        "name": "Miguelita Creek",
        "scvwd:FACILITY": "4029",
        "scvwd:ROUTEID": "40290",
        "tunnel": "yes",
        "waterway": "stream"
      },
      "geometry": {
        "type": "LineString",
        "coordinates": [
          [
            -121.8098682,
            37.382082
          ],
          [
            -121.8098887,
            37.3821273
          ]
        ]
      },
      "id": "way/50256433"
    },
    {
      "type": "Feature",
      "properties": {
        "@id": "way/50256434",
        "boat": "no",
        "name": "Miguelita Creek",
        "scvwd:FACILITY": "4029",
        "scvwd:ROUTEID": "40290",
        "waterway": "stream"
      },
      "geometry": {
        "type": "LineString",
        "coordinates": [
          [
            -121.8098887,
            37.3821273
          ],
          [
            -121.8100861,
            37.3823745
          ],
          [
            -121.8101033,
            37.3824064
          ],
          [
            -121.8101414,
            37.3824416
          ],
          [
            -121.8101656,
            37.3824547
          ],
          [
            -121.8101923,
            37.3824643
          ],
          [
            -121.8104856,
            37.3824882
          ],
          [
            -121.8106825,
            37.3824788
          ],
          [
            -121.8108453,
            37.3824781
          ],
          [
            -121.8110268,
            37.3825197
          ],
          [
            -121.8111245,
            37.3825801
          ],
          [
            -121.8113282,
            37.3828598
          ],
          [
            -121.8113965,
            37.3829858
          ],
          [
            -121.8114463,
            37.3830722
          ],
          [
            -121.8114757,
            37.3831542
          ],
          [
            -121.8115236,
            37.3832587
          ],
          [
            -121.8116476,
            37.3834133
          ],
          [
            -121.8119016,
            37.3836716
          ],
          [
            -121.8119744,
            37.3837355
          ],
          [
            -121.8120623,
            37.3838025
          ],
          [
            -121.8123019,
            37.3839458
          ],
          [
            -121.8124581,
            37.3840516
          ],
          [
            -121.8126246,
            37.3841788
          ],
          [
            -121.8127322,
            37.3842354
          ],
          [
            -121.8129963,
            37.3843211
          ],
          [
            -121.8130324,
            37.3843395
          ],
          [
            -121.8133661,
            37.3845134
          ],
          [
            -121.8135005,
            37.3845946
          ],
          [
            -121.8135532,
            37.3846084
          ],
          [
            -121.813608,
            37.3846151
          ],
          [
            -121.8137977,
            37.3846037
          ],
          [
            -121.8140985,
            37.3845711
          ],
          [
            -121.8144407,
            37.3845204
          ],
          [
            -121.8146865,
            37.3845064
          ],
          [
            -121.8149007,
            37.3845897
          ],
          [
            -121.8150378,
            37.3846522
          ],
          [
            -121.8151173,
            37.3846908
          ],
          [
            -121.8152866,
            37.3847747
          ],
          [
            -121.8154598,
            37.3848488
          ],
          [
            -121.8155538,
            37.3848879
          ],
          [
            -121.8158345,
            37.3850181
          ],
          [
            -121.8159143,
            37.3850686
          ],
          [
            -121.8160184,
            37.3851066
          ],
          [
            -121.8162705,
            37.3851706
          ],
          [
            -121.8166195,
            37.3852833
          ],
          [
            -121.8167439,
            37.3852965
          ],
          [
            -121.8168529,
            37.3853007
          ],
          [
            -121.8169611,
            37.3853122
          ],
          [
            -121.8170703,
            37.385309
          ],
          [
            -121.8171191,
            37.3852858
          ],
          [
            -121.8171551,
            37.3852506
          ],
          [
            -121.8171402,
            37.3850476
          ],
          [
            -121.817144,
            37.3850057
          ],
          [
            -121.8171785,
            37.3849267
          ],
          [
            -121.8172776,
            37.3848421
          ],
          [
            -121.8174406,
            37.3847597
          ],
          [
            -121.8176545,
            37.3846612
          ]
        ]
      },
      "id": "way/50256434"
    },
    {
      "type": "Feature",
      "properties": {
        "@id": "way/50256435",
        "boat": "no",
        "name": "Miguelita Creek",
        "scvwd:FACILITY": "4029",
        "scvwd:ROUTEID": "40290",
        "waterway": "stream"
      },
      "geometry": {
        "type": "LineString",
        "coordinates": [
          [
            -121.8096277,
            37.3811144
          ],
          [
            -121.8097109,
            37.3814079
          ],
          [
            -121.8097685,
            37.3815533
          ],
          [
            -121.8097694,
            37.3816044
          ],
          [
            -121.8097871,
            37.3817135
          ],
          [
            -121.8098413,
            37.3818245
          ],
          [
            -121.8098461,
            37.3818867
          ],
          [
            -121.8098682,
            37.382082
          ]
        ]
      },
      "id": "way/50256435"
    },
    {
      "type": "Feature",
      "properties": {
        "@id": "way/50256444",
        "boat": "no",
        "name": "Upper Penitencia Creek",
        "scvwd:FACILITY": "4032",
        "scvwd:ROUTEID": "40320",
        "waterway": "stream"
      },
      "geometry": {
        "type": "LineString",
        "coordinates": [
          [
            -121.7981675,
            37.3969315
          ],
          [
            -121.7984591,
            37.3968989
          ],
          [
            -121.7986013,
            37.3968719
          ],
          [
            -121.7987411,
            37.3968378
          ],
          [
            -121.7988412,
            37.3968084
          ],
          [
            -121.7989476,
            37.3967993
          ],
          [
            -121.7991583,
            37.3967805
          ],
          [
            -121.7993342,
            37.396775
          ],
          [
            -121.7995468,
            37.3967868
          ],
          [
            -121.7998327,
            37.3967838
          ],
          [
            -121.8000825,
            37.39674
          ],
          [
            -121.8003927,
            37.3966423
          ],
          [
            -121.8004574,
            37.3966266
          ],
          [
            -121.800524,
            37.3966169
          ],
          [
            -121.8005917,
            37.3966143
          ],
          [
            -121.8006221,
            37.3966155
          ],
          [
            -121.8007049,
            37.3966126
          ],
          [
            -121.8011264,
            37.396566
          ],
          [
            -121.8012628,
            37.3965411
          ],
          [
            -121.8014725,
            37.3964988
          ],
          [
            -121.8017469,
            37.3964884
          ],
          [
            -121.8021274,
            37.396497
          ],
          [
            -121.802252,
            37.396509
          ],
          [
            -121.8023115,
            37.3965118
          ],
          [
            -121.8026548,
            37.3965746
          ],
          [
            -121.8028155,
            37.39661
          ],
          [
            -121.8029093,
            37.39662
          ],
          [
            -121.803051,
            37.3966233
          ],
          [
            -121.8032415,
            37.3966282
          ],
          [
            -121.8033344,
            37.3966285
          ],
          [
            -121.8034508,
            37.3966102
          ],
          [
            -121.8035545,
            37.3965928
          ],
          [
            -121.803656,
            37.3965683
          ],
          [
            -121.8037495,
            37.3965467
          ],
          [
            -121.8038667,
            37.3965148
          ],
          [
            -121.8039419,
            37.3964902
          ],
          [
            -121.8042131,
            37.3964421
          ],
          [
            -121.8042755,
            37.3964264
          ],
          [
            -121.8046198,
            37.3964639
          ],
          [
            -121.8047884,
            37.3965632
          ],
          [
            -121.8050633,
            37.3966584
          ],
          [
            -121.806032,
            37.3969102
          ],
          [
            -121.8062875,
            37.3969926
          ],
          [
            -121.8063799,
            37.39701
          ],
          [
            -121.8066612,
            37.3970384
          ],
          [
            -121.8068867,
            37.3970483
          ],
          [
            -121.8071261,
            37.3970431
          ],
          [
            -121.8073339,
            37.3970216
          ],
          [
            -121.8076996,
            37.3970284
          ],
          [
            -121.8077677,
            37.3970351
          ],
          [
            -121.8078092,
            37.397043
          ],
          [
            -121.8078568,
            37.3970556
          ],
          [
            -121.8080514,
            37.3970818
          ],
          [
            -121.8083015,
            37.3971329
          ],
          [
            -121.8083274,
            37.3971307
          ],
          [
            -121.8087263,
            37.3970929
          ],
          [
            -121.8089577,
            37.3969975
          ],
          [
            -121.8089672,
            37.3969884
          ],
          [
            -121.8090851,
            37.3968302
          ],
          [
            -121.809175,
            37.3967234
          ],
          [
            -121.8094093,
            37.3964532
          ],
          [
            -121.8094797,
            37.3963935
          ],
          [
            -121.8095895,
            37.3962799
          ],
          [
            -121.8096474,
            37.396173
          ],
          [
            -121.8096822,
            37.3960443
          ],
          [
            -121.8096948,
            37.3959198
          ],
          [
            -121.8098343,
            37.3955182
          ],
          [
            -121.8099246,
            37.3953699
          ],
          [
            -121.8100225,
            37.3952351
          ],
          [
            -121.8101399,
            37.3951011
          ],
          [
            -121.8104491,
            37.3948922
          ],
          [
            -121.8106583,
            37.3948107
          ],
          [
            -121.8108311,
            37.3947713
          ],
          [
            -121.8108612,
            37.3947708
          ]
        ]
      },
      "id": "way/50256444"
    },
    {
      "type": "Feature",
      "properties": {
        "@id": "way/50256447",
        "boat": "no",
        "layer": "-1",
        "name": "Upper Penitencia Creek",
        "scvwd:FACILITY": "4032",
        "scvwd:ROUTEID": "40320",
        "tunnel": "yes",
        "waterway": "stream"
      },
      "geometry": {
        "type": "LineString",
        "coordinates": [
          [
            -121.8108612,
            37.3947708
          ],
          [
            -121.8109305,
            37.394785
          ]
        ]
      },
      "id": "way/50256447"
    },
    {
      "type": "Feature",
      "properties": {
        "@id": "way/50256453",
        "boat": "no",
        "layer": "-1",
        "name": "Upper Penitencia Creek",
        "scvwd:FACILITY": "4032",
        "scvwd:ROUTEID": "40320",
        "waterway": "stream"
      },
      "geometry": {
        "type": "LineString",
        "coordinates": [
          [
            -121.7980547,
            37.3969427
          ],
          [
            -121.7981675,
            37.3969315
          ]
        ]
      },
      "id": "way/50256453"
    },
    {
      "type": "Feature",
      "properties": {
        "@id": "way/50256549",
        "boat": "no",
        "scvwd:ROUTEID": "490057",
        "waterway": "stream"
      },
      "geometry": {
        "type": "LineString",
        "coordinates": [
          [
            -121.7957386,
            37.4080539
          ],
          [
            -121.7956414,
            37.4078612
          ],
          [
            -121.7956029,
            37.4077616
          ],
          [
            -121.7955265,
            37.4076943
          ],
          [
            -121.795511,
            37.4076421
          ],
          [
            -121.7954811,
            37.4076163
          ],
          [
            -121.7954467,
            37.4075968
          ],
          [
            -121.795398,
            37.4075541
          ],
          [
            -121.7952991,
            37.4074595
          ],
          [
            -121.7951596,
            37.4072974
          ],
          [
            -121.7949996,
            37.4070447
          ],
          [
            -121.7949714,
            37.4070097
          ],
          [
            -121.7946357,
            37.4068035
          ],
          [
            -121.7944767,
            37.4066917
          ],
          [
            -121.7943345,
            37.4064686
          ],
          [
            -121.794227,
            37.4062401
          ],
          [
            -121.7942276,
            37.4062236
          ],
          [
            -121.7942077,
            37.4061489
          ],
          [
            -121.7941844,
            37.4061153
          ],
          [
            -121.7940747,
            37.406045
          ],
          [
            -121.7939519,
            37.4060228
          ],
          [
            -121.793773,
            37.4059625
          ],
          [
            -121.7937284,
            37.4058427
          ],
          [
            -121.7935104,
            37.4057131
          ],
          [
            -121.7934422,
            37.4056201
          ],
          [
            -121.7934387,
            37.4056028
          ],
          [
            -121.7934026,
            37.4055586
          ],
          [
            -121.79316,
            37.4053645
          ],
          [
            -121.7931314,
            37.4053277
          ],
          [
            -121.7930212,
            37.4051546
          ],
          [
            -121.7930556,
            37.4049803
          ],
          [
            -121.7931092,
            37.4048527
          ],
          [
            -121.7931224,
            37.4048369
          ],
          [
            -121.7931398,
            37.404751
          ],
          [
            -121.7931201,
            37.4047097
          ],
          [
            -121.7931039,
            37.4046917
          ],
          [
            -121.7930132,
            37.4045408
          ],
          [
            -121.7929406,
            37.4043644
          ],
          [
            -121.7929377,
            37.4043413
          ],
          [
            -121.7929469,
            37.4042958
          ],
          [
            -121.7929752,
            37.4042555
          ],
          [
            -121.7930028,
            37.4042223
          ],
          [
            -121.7931095,
            37.4041225
          ]
        ]
      },
      "id": "way/50256549"
    },
    {
      "type": "Feature",
      "properties": {
        "@id": "way/50256550",
        "boat": "no",
        "scvwd:ROUTEID": "490050",
        "waterway": "stream"
      },
      "geometry": {
        "type": "LineString",
        "coordinates": [
          [
            -121.8052429,
            37.409184
          ],
          [
            -121.8054774,
            37.4089613
          ],
          [
            -121.805537,
            37.4089277
          ],
          [
            -121.8055499,
            37.4089222
          ],
          [
            -121.805618,
            37.4088885
          ],
          [
            -121.8057374,
            37.4088036
          ],
          [
            -121.8057872,
            37.4087535
          ],
          [
            -121.8058296,
            37.4086993
          ],
          [
            -121.8058678,
            37.4086338
          ],
          [
            -121.8059393,
            37.4083701
          ],
          [
            -121.8059783,
            37.4081942
          ],
          [
            -121.8060251,
            37.4080356
          ],
          [
            -121.8061517,
            37.4078039
          ],
          [
            -121.8061781,
            37.407742
          ],
          [
            -121.8061955,
            37.4076782
          ],
          [
            -121.8062036,
            37.407562
          ],
          [
            -121.8063361,
            37.4075018
          ],
          [
            -121.806672,
            37.4074403
          ],
          [
            -121.8067019,
            37.4074261
          ],
          [
            -121.8067141,
            37.4074161
          ],
          [
            -121.8067239,
            37.4074045
          ],
          [
            -121.8067478,
            37.4073245
          ],
          [
            -121.8069282,
            37.4071148
          ],
          [
            -121.8069835,
            37.4070568
          ]
        ]
      },
      "id": "way/50256550"
    },
    {
      "type": "Feature",
      "properties": {
        "@id": "way/50256560",
        "boat": "no",
        "scvwd:ROUTEID": "490055",
        "waterway": "stream"
      },
      "geometry": {
        "type": "LineString",
        "coordinates": [
          [
            -121.7991272,
            37.4055654
          ],
          [
            -121.7989239,
            37.4052512
          ],
          [
            -121.7988631,
            37.4050516
          ],
          [
            -121.7987921,
            37.4049614
          ],
          [
            -121.7987458,
            37.4049229
          ],
          [
            -121.7986933,
            37.4048898
          ],
          [
            -121.7984882,
            37.4044627
          ],
          [
            -121.7982797,
            37.404031
          ],
          [
            -121.7981342,
            37.4036213
          ],
          [
            -121.7977765,
            37.4033056
          ],
          [
            -121.7976808,
            37.4032313
          ],
          [
            -121.7975789,
            37.4031624
          ],
          [
            -121.7974715,
            37.4030993
          ],
          [
            -121.7973588,
            37.4030421
          ],
          [
            -121.7972416,
            37.4029912
          ],
          [
            -121.7971202,
            37.4029468
          ],
          [
            -121.7970393,
            37.4029215
          ],
          [
            -121.7969491,
            37.402894
          ],
          [
            -121.7967441,
            37.402826
          ],
          [
            -121.7965426,
            37.4027513
          ],
          [
            -121.7964698,
            37.4027252
          ],
          [
            -121.7962654,
            37.4025926
          ],
          [
            -121.7961618,
            37.4025122
          ],
          [
            -121.7960646,
            37.4024267
          ],
          [
            -121.7959744,
            37.4023365
          ],
          [
            -121.7958547,
            37.4022087
          ],
          [
            -121.795677,
            37.4020203
          ],
          [
            -121.7955066,
            37.4018276
          ],
          [
            -121.7954011,
            37.4017017
          ]
        ]
      },
      "id": "way/50256560"
    },
    {
      "type": "Feature",
      "properties": {
        "@id": "way/50256561",
        "boat": "no",
        "layer": "-1",
        "scvwd:ROUTEID": "490056",
        "waterway": "stream"
      },
      "geometry": {
        "type": "LineString",
        "coordinates": [
          [
            -121.8008615,
            37.4051793
          ],
          [
            -121.8007055,
            37.4049299
          ],
          [
            -121.8005662,
            37.4047911
          ],
          [
            -121.8004012,
            37.404656
          ],
          [
            -121.8002446,
            37.404518
          ],
          [
            -121.8000395,
            37.4043196
          ],
          [
            -121.8000033,
            37.4042674
          ],
          [
            -121.7998815,
            37.4041327
          ],
          [
            -121.7997322,
            37.4040168
          ],
          [
            -121.7995516,
            37.4039025
          ],
          [
            -121.7993329,
            37.4037884
          ],
          [
            -121.7992167,
            37.4037407
          ],
          [
            -121.7990965,
            37.4036996
          ],
          [
            -121.7989902,
            37.4036689
          ],
          [
            -121.7987823,
            37.4036146
          ],
          [
            -121.7986749,
            37.4035978
          ],
          [
            -121.798566,
            37.4035882
          ],
          [
            -121.7984566,
            37.4035858
          ],
          [
            -121.7983473,
            37.4035907
          ],
          [
            -121.7982389,
            37.4036027
          ],
          [
            -121.7981342,
            37.4036213
          ]
        ]
      },
      "id": "way/50256561"
    },
    {
      "type": "Feature",
      "properties": {
        "@id": "way/50256565",
        "boat": "no",
        "scvwd:ROUTEID": "490049",
        "waterway": "stream"
      },
      "geometry": {
        "type": "LineString",
        "coordinates": [
          [
            -121.8132929,
            37.4073551
          ],
          [
            -121.813392,
            37.4071552
          ],
          [
            -121.8134346,
            37.4070419
          ],
          [
            -121.8134684,
            37.4069266
          ],
          [
            -121.8134811,
            37.4068727
          ],
          [
            -121.8135171,
            37.4067285
          ],
          [
            -121.8135848,
            37.4066171
          ],
          [
            -121.8136579,
            37.4064984
          ],
          [
            -121.8137213,
            37.4064128
          ],
          [
            -121.8137925,
            37.4063311
          ],
          [
            -121.8138709,
            37.4062537
          ],
          [
            -121.8139309,
            37.4062016
          ],
          [
            -121.8142091,
            37.4059992
          ],
          [
            -121.8142526,
            37.4059295
          ],
          [
            -121.8143237,
            37.4057265
          ],
          [
            -121.8145666,
            37.4052507
          ],
          [
            -121.8147572,
            37.4049246
          ],
          [
            -121.8149145,
            37.4047241
          ],
          [
            -121.8149595,
            37.4046807
          ],
          [
            -121.815011,
            37.4046423
          ],
          [
            -121.8151945,
            37.4045385
          ],
          [
            -121.8154271,
            37.4043825
          ],
          [
            -121.8154691,
            37.4043414
          ],
          [
            -121.8155325,
            37.4042531
          ],
          [
            -121.8156725,
            37.404123
          ],
          [
            -121.8157494,
            37.404037
          ],
          [
            -121.8157844,
            37.4039807
          ],
          [
            -121.8158108,
            37.4039215
          ],
          [
            -121.8158282,
            37.4038602
          ],
          [
            -121.8158329,
            37.4038287
          ],
          [
            -121.8158282,
            37.4035588
          ],
          [
            -121.815855,
            37.4033128
          ],
          [
            -121.8158839,
            37.4031552
          ],
          [
            -121.8159281,
            37.4029872
          ],
          [
            -121.8159587,
            37.4029309
          ],
          [
            -121.8159976,
            37.4028778
          ],
          [
            -121.8160979,
            37.4027849
          ],
          [
            -121.8161272,
            37.4027685
          ],
          [
            -121.8161692,
            37.4027275
          ],
          [
            -121.8162063,
            37.4024854
          ],
          [
            -121.8162359,
            37.4023857
          ],
          [
            -121.8162575,
            37.4023278
          ]
        ]
      },
      "id": "way/50256565"
    },
    {
      "type": "Feature",
      "properties": {
        "@id": "way/711424700",
        "boat": "no",
        "scvwd:ROUTEID": "490100",
        "waterway": "stream"
      },
      "geometry": {
        "type": "LineString",
        "coordinates": [
          [
            -121.8119292,
            37.3845706
          ],
          [
            -121.812129,
            37.3844608
          ],
          [
            -121.8122605,
            37.3844375
          ],
          [
            -121.8122939,
            37.3844362
          ],
          [
            -121.8125533,
            37.3844121
          ],
          [
            -121.812891,
            37.3843455
          ],
          [
            -121.8130324,
            37.3843395
          ]
        ]
      },
      "id": "way/711424700"
    },
    {
      "type": "Feature",
      "properties": {
        "@id": "way/711424701",
        "boat": "no",
        "layer": "-1",
        "scvwd:ROUTEID": "490100",
        "tunnel": "yes",
        "waterway": "stream"
      },
      "geometry": {
        "type": "LineString",
        "coordinates": [
          [
            -121.8118016,
            37.3846624
          ],
          [
            -121.8119292,
            37.3845706
          ]
        ]
      },
      "id": "way/711424701"
    },
    {
      "type": "Feature",
      "properties": {
        "@id": "way/711424708",
        "boat": "no",
        "layer": "-1",
        "scvwd:ROUTEID": "490051",
        "tunnel": "yes",
        "waterway": "stream"
      },
      "geometry": {
        "type": "LineString",
        "coordinates": [
          [
            -121.8193865,
            37.3996023
          ],
          [
            -121.8194755,
            37.3994743
          ]
        ]
      },
      "id": "way/711424708"
    },
    {
      "type": "Feature",
      "properties": {
        "@id": "way/711424709",
        "boat": "no",
        "scvwd:ROUTEID": "490051",
        "waterway": "stream"
      },
      "geometry": {
        "type": "LineString",
        "coordinates": [
          [
            -121.8194755,
            37.3994743
          ],
          [
            -121.8196925,
            37.3992207
          ],
          [
            -121.8198405,
            37.3990706
          ],
          [
            -121.8198621,
            37.3990136
          ],
          [
            -121.8198605,
            37.3989907
          ],
          [
            -121.8198414,
            37.3989152
          ],
          [
            -121.8198943,
            37.3987886
          ],
          [
            -121.8200423,
            37.3984997
          ],
          [
            -121.8201117,
            37.3984133
          ],
          [
            -121.8202035,
            37.3983454
          ],
          [
            -121.8203846,
            37.3981802
          ],
          [
            -121.8205462,
            37.3980547
          ],
          [
            -121.8206224,
            37.3978462
          ],
          [
            -121.8206028,
            37.3977504
          ],
          [
            -121.8206104,
            37.3976366
          ],
          [
            -121.8206076,
            37.3974608
          ],
          [
            -121.8206183,
            37.3972855
          ],
          [
            -121.8206425,
            37.3970851
          ],
          [
            -121.8206923,
            37.3969091
          ],
          [
            -121.820687,
            37.3969033
          ],
          [
            -121.8206806,
            37.3968983
          ],
          [
            -121.8206731,
            37.3968943
          ],
          [
            -121.8206525,
            37.3968815
          ],
          [
            -121.8206784,
            37.3966912
          ],
          [
            -121.8206586,
            37.3966257
          ],
          [
            -121.8207038,
            37.3962608
          ],
          [
            -121.8208698,
            37.3961275
          ],
          [
            -121.8211333,
            37.3960374
          ],
          [
            -121.8211752,
            37.3959629
          ],
          [
            -121.8211953,
            37.3959143
          ],
          [
            -121.8212143,
            37.3957955
          ],
          [
            -121.8212184,
            37.3957749
          ],
          [
            -121.8212135,
            37.3957545
          ],
          [
            -121.82118,
            37.3957235
          ],
          [
            -121.8211114,
            37.3955559
          ],
          [
            -121.8210763,
            37.3953952
          ]
        ]
      },
      "id": "way/711424709"
    },
    {
      "type": "Feature",
      "properties": {
        "@id": "way/711424710",
        "boat": "no",
        "scvwd:ROUTEID": "490051",
        "waterway": "stream"
      },
      "geometry": {
        "type": "LineString",
        "coordinates": [
          [
            -121.8211625,
            37.3951356
          ],
          [
            -121.8212271,
            37.3950774
          ]
        ]
      },
      "id": "way/711424710"
    },
    {
      "type": "Feature",
      "properties": {
        "@id": "way/711424711",
        "boat": "no",
        "layer": "-1",
        "scvwd:ROUTEID": "490051",
        "tunnel": "yes",
        "waterway": "stream"
      },
      "geometry": {
        "type": "LineString",
        "coordinates": [
          [
            -121.8211217,
            37.3952455
          ],
          [
            -121.8211625,
            37.3951356
          ]
        ]
      },
      "id": "way/711424711"
    },
    {
      "type": "Feature",
      "properties": {
        "@id": "way/711424712",
        "boat": "no",
        "scvwd:ROUTEID": "490051",
        "waterway": "stream"
      },
      "geometry": {
        "type": "LineString",
        "coordinates": [
          [
            -121.8210916,
            37.3953377
          ],
          [
            -121.8211217,
            37.3952455
          ]
        ]
      },
      "id": "way/711424712"
    },
    {
      "type": "Feature",
      "properties": {
        "@id": "way/711424713",
        "boat": "no",
        "layer": "-1",
        "scvwd:ROUTEID": "490051",
        "tunnel": "yes",
        "waterway": "stream"
      },
      "geometry": {
        "type": "LineString",
        "coordinates": [
          [
            -121.8210763,
            37.3953952
          ],
          [
            -121.8210916,
            37.3953377
          ]
        ]
      },
      "id": "way/711424713"
    }
  ]
}